Address,Authority,Cert #,City,Complaints,DBA,Name,State,Telephone
907 BEDFORD STREET,TOWER,31615,ABINGTON,52483,STONE'S AUTO RECYCLING INC,ABINGTON SUNOCO,MA,7818266484
346 North Avenue,TOWER,31563,ABINGTON,52379,,BLACKWATER TOWING INC,MA,6178470005
325 WASHINGTON STREET,TOWER,27984,ABINGTON,25852,,"ROUTE 18 AUTO BODY, INC.",MA,7818263804
288 NORTH AVENUE,TOWER,14787,ABINGTON,3413,"UNIVERSAL AUTO BODY, INC.","UNIVERSAL AUTO BODY, INC.",MA,7818785700
21 KEEFE ROAD,TOWER,25499,ACTON,48949,WORLD AUTO CARS INC,INTERNATIONAL COLLISION CENTER,MA,9783694313
5 WILLOW STREET,TOWER,30954,ACTON,48814,,SAL'S AUTO & TRUCK REPAIR,MA,9786575100
95 COMMERCIAL STREET,TOWER,30971,ADAMS,48831,,"AL'S SERVICE CENTER, INC.",MA,8882408803
101 HOWLAND AVENUE,TOWER,24069,ADAMS,5920,,"FILLION, INC.",MA,4136649366
100 BUCKLIN ROAD,TOWER,15871,ADAMS,3586,,SEBASTINO'S SERVICE & USED CAR,MA,4136641053
1363 MAIN STREET,TOWER,26778,AGAWAM,16104,,A-C-E AUTO BODY,MA,8602591423
61 RAMAH CIRCLE South,TOWER,29567,AGAWAM,34221,,LANGONET INC,MA,4137817000
245 SPRINGFIELD STREET,TOWER,15260,AGAWAM,3486,,SARAT FORD SALES INC,MA,4137817000
100 HANO STREET,TOWER,31910,ALLSTON,52313,ALLSTON TOWING SVC&RPR INC,BRIGHTON TOWING,MA,8008952886
2 EMERY ROAD,TOWER,31401,ALLSTON,52146,,D & G TOWING AND AUTO REPAIR S,MA,5082380056
207 ELM STREET,TOWER,15693,AMESBURY,3557,,AMESBURY COACH,MA,9784751146
100 HAVERHILL ROAD (RTE 110),TOWER,24234,AMESBURY,7235,ALFRED PRATT,AMESBURY TOWING,MA,9789562116
207R ELM STREET,TOWER,22488,AMESBURY,5277,,DELONG AUTO BODY,MA,9784751146
27 SOUTH HUNT ROAD,TOWER,3115,AMESBURY,1623,NEWBURYPORT TOWING SERVICE INC,NEWBURYPORT TOWING SERVICE INC,MA,9788477773
100 SUNDERLAND ROAD,TOWER,31680,AMHERST,52575,,AMHERST TOWING & RECOVERY LLC,MA,4139673327
260 COLLEGE STREET,TOWER,26144,AMHERST,7455,C & J ENTERPRISES,COLLEGE STREET MOTORS,MA,4137392900
9 LUPINE ROAD,TOWER,23607,ANDOVER,5711,,ELM STREET AUTOMOTIVE CENTRE,MA,9784750260
19 OLD SOUTH ROAD,TOWER,23087,AQUINNAH,5516,,WIDDISS RECOVERY,MA,5086932800
712 SUMMER STREET,TOWER,28853,ARLINGTON,29135,,"PALMER'S GARAGE, INC.",MA,7818178545
43 NICKERSON ROAD,TOWER,31399,ASHLAND,52145,,ADVANTAGE COLLISION CENTER INC,MA,5084594712
2 YALE STREET,TOWER,31860,ASHLAND,52828,J & M TOWING INC,J & M TOWING INC,MA,7812819688
71 SOUTH MAIN,TOWER,31551,ASSONET,52363,,MAIN STREET GAS&AUTO SALES INC,MA,5086760309
158 Marble Street,TOWER,31426,ATHOL,52183,DAVID M BISHOP,C & D TOWING,MA,9783454131
25 BICKFORD DRIVE,TOWER,30903,ATHOL,48753,One Luther Inc.,DALE'S AUTO BODY & GENERAL Rep,MA,9782493217
163 COLVIN STREET,TOWER,31147,ATTLEBORO,51820,,COASTAL COLLISION & TOWING INC,MA,4017221185
24 RICE STREET,TOWER,31364,ATTLEBORO,52103,,EAST COAST AUTO SALES&SVC INC,MA,5083781166
227 pine street,TOWER,25287,ATTLEBORO,6594,,MIKE'S TOWING & RECOVERY INC,MA,5082523312
24 RICE STREET,TOWER,30625,ATTLEBORO,37895,,"STERRY STREET AUTO SALES, INC.",MA,5085647200
34 MILL STREET,TOWER,31382,AUBURN,52138,MICHAEL ROBIDOUX,CENTRAL MASS TOWING,MA,6174643777
505 WASHINGTON STREET,TOWER,14529,AUBURN,3368,,FULLER AUTOMOTIVE SERVICE INC.,MA,5083666161
340 EAST SPRING ST,TOWER,16256,AVON,3657,,GEORGE'S GARAGE INC,MA,5085863400
385 CENTRAL AVENUE,TOWER,16167,AYER,3644,,CENTRAL COLLISION CENTER,MA,9787220070
77 FITCHBURG ROAD,TOWER,29289,AYER,32654,,"RTE. 2A AUTO SALES, INC.",MA,8004470633
40 LITTLETON ROAD,TOWER,31498,AYER,52272,SCOTT TERRANOVA,TERRANOVA AUTO BODY,MA,
180 GREAT ROAD,TOWER,31188,BEDFORD,51879,,"RIGGIO AUTO REPAIR, INC.",MA,9786702122
111 SARGENT ST,TOWER,31882,BELCHERTOWN,52869,RELENTLESS TOWING & RECOVERY,RELENTLESS TOWING & RECOVERY,MA,4137373539
794 SOUTH MAIN STREET,TOWER,30669,BELLINGHAM,37955,,"BELLINGHAM PARTS PLUS, INC.",MA,5084730556
46 NORTH MAIN STREET,TOWER,30711,BELLINGHAM,38020,,BELLINGHAM TOWING,MA,8007342706
1201 PULASKI BLVD,TOWER,31291,BELLINGHAM,51992,"LAKE ST AUTO SALES & SVC, LTD","LAKE ST AUTO SALES & SVC, LTD",MA,5084730556
46 N MAIN STREET,TOWER,30350,BELLINGHAM,37442,MARTY'S AUTO SERVICE,MARTY'S AUTO SERVICE INC,MA,8007342706
12 GRANT AVENUE,TOWER,21852,BELMONT,5066,,FRANK'S TOWING,MA,7815931200
47 COUNTY STREET,TOWER,20232,BERKLEY,4530,,BOB'S AUTO REPAIR,MA,5088248666
3 ALGERINE STREET,TOWER,24203,BERKLEY,7216,,FLINT'S AUTO PARTS,MA,5088245875
51 WEST STREET,TOWER,24795,BERLIN,6296,,BERLIN AUTO SERVICE INC,MA,6179691300
75 CARTER STREET,TOWER,31721,BERLIN,52648,BRIAN CLEMMER,WHEELER'S GARAGE,MA,9785625652
25 CREEK STREET,TOWER,14788,BEVERLY,3414,BIG JIM'S TOWING,"BIG JIM'S AUTO BODY, INC.",MA,9789278420
126 R. PARK STREET,TOWER,25879,BEVERLY,7106,,"NEW BEVERLY AUTO CLINIC, INC.",MA,5083781166
737 BOSTON ROAD,TOWER,31271,BILLERICA,51966,,AUTOMOTIVE TECH & TRANS. LLC,MA,5087547255
PO BOX 861,TOWER,26992,BILLERICA,48539,,MERCER & SONS MOVERS,MA,9786672541
335 BOSTON ROAD,TOWER,31379,BILLERICA,52122,CHARLES E CARROLL,NEW ENGLAND FRAME,MA,9789751300
812 BOSTON ROAD,TOWER,21088,BILLERICA,4817,,PATTERSON'S TOW SERV. OF BDFD.,MA,9786633301
247 ELM STREET,TOWER,28003,BLACKSTONE,52218,ANDREW JOSEPH,ANDREW'S TOWING AND RECOVERY,MA,5085285100
319 MAIN STREET,TOWER,31301,BLACKSTONE,52005,,R K AUTO BODY & SALES INC,MA,7817923256
46 NEWMARKET SQ,TOWER,31780,BOSTON,52721,E & J TRANSPORT LLC,EASTCOAST TOWING,MA,7815931200
1048 BLUE HILL AVE,TOWER,31827,BOSTON,52795,,EJW TRUCKING LLC,MA,
255 SOUTHHAMPTON STREET,TOWER,31303,BOSTON,52008,,IN & OUT SERVICE INC,MA,8009228246
37 CHAUCER ST,TOWER,31864,BOSTON,52850,,MILAN TOWING INC,MA,6178845480
90A FREEPORT STREET,TOWER,20746,BOSTON,4694,,"T & T TOWING, INCORPORATED",MA,7812935500
255 SOUTHAMPTON STREET Rear,TOWER,30930,BOSTON,48797,,WALSH TOWING CO,MA,6172681200
795 MASSACHUSETTS AVENUE,TOWER,30882,BOXBOROUGH,48723,,"CBK AUTOMOTIVE REPAIR, INC.",MA,7819373200
141 SCHOOL STREET,TOWER,30454,BOYLSTON,37608,,"BOYLSTON MASS AUTO BODY, INC.",MA,8003337234
43 SOUTH WARREN STREET,TOWER,23634,BRADFORD,5725,,R. M. TOWING CO.,MA,9786881921
65 SHERBROOK AVENUE,TOWER,29587,BRAINTREE,34252,,N.E. AUTO TRANS. P/U & DELI.SE,MA,5085647200
"817 Washington Street,Unit202",TOWER,31749,BRAINTREE,52688,,SUNSET TOWING INC,MA,7818487652
57 JERSEY AVENUE,TOWER,28132,BRAINTREE,22711,SAME,"WYNOT'S TOWING, INC.",MA,6173544640
446 UNDERPASS ROAD,TOWER,25055,BREWSTER,6437,,DON'S AUTO COSMETICS INC,MA,8005531801
155 UNDERPASS ROAD,TOWER,25138,BREWSTER,6493,,MACGREGOR CO.,MA,5085647200
333 BEDFORD STREET,TOWER,27720,BRIDGEWATER,20703,"W.R. ELLIS CORP., INC.",BRIDGEWATER AUTO BODY,MA,5086972200
1775 OLD PLYMOUTH STREET,TOWER,23794,BRIDGEWATER,5796,,"CHUCKRAN AUTO PARTS, INC.",MA,8888509400
100 FIREWORKS CIRCLE,TOWER,31598,BRIDGEWATER,52451,NEAI CORPORATION,NEW ENGLAND ASSOCIATES,MA,6029955692
8 OAKWOOD RD,TOWER,31852,BRIMFIELD,52821,,BT AND SONS TOWING & RECOVERY,MA,4132457600
86 HOLLAND ROAD,TOWER,18483,BRIMFIELD,4081,,ONE STOP TOWING,MA,4132138378
1200 Montello Street,TOWER,31375,BROCKTON,52109,K LEGRICE INC,A & S SERVICE CENTER,MA,5085863400
193 GROVE STREET,TOWER,18418,BROCKTON,4069,,AL & VIC'S SERV STATION INC,MA,5086634100
210 N. CARY STREET,TOWER,27694,BROCKTON,20352,,"ASSOCIATED TOWING, INC.",MA,5085647200
1029 PEARL STREET,TOWER,30441,BROCKTON,37602,,"BOURNES ENTERPRISES, INC.",MA,5074555200
511 THATCHER STREET,TOWER,31461,BROCKTON,52219,REGAL AUTO PARTS INC,BROCKTON AUTO PARTS,MA,9786923330
21 TERMINAL PL,TOWER,31916,BROCKTON,52912,,CELTIC TOWING LLC,MA,7817695200
208 PLEASANT STREET,TOWER,31166,BROCKTON,51839,CICCHETTI'S SVC STATION INC,CICCHETTI'S SERVICE STATION IN,MA,5085860599
515 NORTH MAIN STREET,TOWER,27639,BROCKTON,20793,,CITY WIDE TOWING,MA,5085860414
1489 MAIN STREET,TOWER,28121,BROCKTON,22209,,CLASSIC TOWING,MA,7812936331
1489 MAIN STREET,TOWER,29620,BROCKTON,34949,,"CRESCENT AUTO, INC.",MA,5085881260
189 - B CLINTON STREET,TOWER,26089,BROCKTON,7345,,DAVID'S AUTO SALES,MA,5085880414
553 THATCHER STREET,TOWER,15715,BROCKTON,3561,ANDRADE INC,EVERETT'S AUTO PARTS,MA,5086517700
189B CLINTON STREET,TOWER,6940,BROCKTON,2593,,G AND B AUTO SERVICE,MA,5085860414
74 WARREN AVENUE,TOWER,18244,BROCKTON,4035,,GEORGE'S SERVICE STATION,MA,5085875640
546 WARREN AVE,TOWER,25548,BROCKTON,6786,,GINIS AUTO REPAIR,MA,5089949688
36 PERKINS AVENUE,TOWER,31621,BROCKTON,52491,,JCB AUTO REPAIR AND TOWING INC,MA,5083666161
515 NORTH MAIN STREET,TOWER,30984,BROCKTON,48855,JOSE A ALMEIDA DBA,KMP TOWING,MA,5089990368
1200 MONTELLO STREET,TOWER,27314,BROCKTON,18219,MONTELLO BUSINESS ASSOC INC,LYNCH'S TOWING,MA,6172850826
20 TERMINAL PLACE,TOWER,30474,BROCKTON,37655,,MAG'S TOWING INC.,MA,5089415711
1200 montello Street,TOWER,28371,BROCKTON,25821,MANOLI TOWING INC,MANOLI TOWING INC,MA,5085647200
1200 Montello Street,TOWER,30436,BROCKTON,37586,,"MATHER'S TOWING, INC.",MA,7813413111
41 PERKINS STREET,TOWER,31651,BROCKTON,52539,,MICHAEL C MATHER SR,MA,5085875640
13 KING AVE,TOWER,31902,BROCKTON,52888,SIMONELLI'S TOWING&RECOVERY CO,SIMONELLI'S TOWING&RECOVERY CO,MA,5086926904
1109 MONTELLO STREET,TOWER,31755,BROCKTON,50215,,"TRIPLE M MOVERS & STORAGE, INC",MA,6174643777
191 GROVE STREET,TOWER,19054,BROCKTON,4202,,TROJANO'S,MA,7818488600
210 EAST ASHLAND STREET,TOWER,28980,BROCKTON,30290,,VINNY'S TOWING,MA,9786616915
827 BELMONT STREET,TOWER,29586,BROCKTON,34251,,WEST SIDE SUNOCO,MA,7818178518
74 WARREN AVE,TOWER,31517,BROCKTON,52312,,WESTGATE SERVICE LLC,MA,5085881260
53 GAY ROAD,TOWER,30929,BROOKFIELD,48786,,O'KEEFE TOWING & STORAGE,MA,5088676894
33 CENTRAL STREET,TOWER,9236,BROOKFIELD,2782,,WOODARD'S GARAGE,MA,5083476850
198 Harvard Street,TOWER,31216,BROOKLINE,51897,DWIGHT A CASSIDY,CASSIDY WRECKER SERVICE,MA,5085647200
49 MIDDLESEX TURNPIKE,TOWER,25641,BURLINGTON,6874,,NED'S HD TOWING INC,MA,7814496786
25 WALL STREET,TOWER,4777,BURLINGTON,2107,RICHARD MORGAN & EDWARD IGO,WINN ST. SERVICE,MA,
61 NIGHTNGALE POND ROAD,TOWER,28564,BUZZARDS BAY,27747,,BOB'S TRUCKING & EQUIP. SERV.,MA,5089949688
88 ONSET AVENUE,TOWER,30628,BUZZARDS BAY,37893,,"VAUGHNS TOWING & SERVICE, INC.",MA,5089949688
50 MOONEY STREET,TOWER,20303,CAMBRIDGE,4549,,B & B TOWING INC,MA,5083781166
162 Alewife Parkway,TOWER,30470,CAMBRIDGE,37645,,BOSTONIAN TOWING SERVICE INC,MA,5086501202
293 REVERE STREET,TOWER,6335,CANTON,2506,SAME,"INTERSTATE WRECKER SERV., INC.",MA,5085647200
868 TURNPIKE STREET,TOWER,30646,CANTON,37923,,PAT'S TOWING,MA,7819630699
180 RT. 8A NORTH,TOWER,26856,CHARLEMONT,16459,,STAGECOACH MOTORS & REPAIR,MA,8009228276
6 ROLAND STREET,TOWER,29180,CHARLESTOWN,31504,,CITY SIDE ENTERPRISES INC,MA,7813371009
5 GILLESPIE ROAD,TOWER,31524,CHARLTON,52323,,BASIC MAINTENANCE TRUCK CENTER,MA,5087915566
384 WORCESTER ROAD,TOWER,31665,CHARLTON,52562,MICHAEL S LUNDQUIST,BOOMBA'S 24 HR TOWING,MA,8003337234
ROUTE 20,TOWER,18287,CHARLTON,4041,,"LAMOUNTAIN CONSTRUCTION, INC.",MA,5083476850
190A BROOKFIELD ROAD,TOWER,18214,CHARLTON,4029,,MICHAEL'S SERVICE STATION LLC,MA,5088320404
76 Riverneck Road,TOWER,30408,CHELMSFORD,37543,,CHRISTOPHER'S EMERGENCY EQUIP,MA,9789340697
293 LITTLETON ROAD,TOWER,30737,CHELMSFORD,48510,,"FERREIRA TOWING, INC.",MA,5083781166
76 Riverneck Road,TOWER,30408,CHELMSFORD,37543,,CHRISTOPHER'S EMERGENCY EQUIP,MA,9789340697
293 LITTLETON ROAD,TOWER,30737,CHELMSFORD,48510,,"FERREIRA TOWING, INC.",MA,5083781166
172 SPENCER AVENUE,TOWER,31715,CHELSEA,52637,,MJS TOWING INC,MA,5085735893
172 SPENCER AVENUE,TOWER,31715,CHELSEA,52637,,MJS TOWING INC,MA,5085735893
260 ROUTE 20,TOWER,16023,CHESTER,3620,,RICHIE'S GENERAL SERVICE,MA,4135681243
260 ROUTE 20,TOWER,16023,CHESTER,3620,,RICHIE'S GENERAL SERVICE,MA,4135681243
68 WEST STREET,TOWER,16961,CHICOPEE,3792,"CHUCK'S AUTO SERVICE, INC.",CHUCK'S TOWING SERVICE,MA,4135928118
58 WEST STREET,TOWER,31374,CHICOPEE,52125,WEST END TRANSPORTATION,CHUCK'S TOWING SERVICE INC,MA,4135928118
25 SHERIDAN STREET,TOWER,1025,CHICOPEE,961,,GENO'S AUTO SERVICE INC,MA,4135944757
1660 WESTOVER ROAD,TOWER,30834,CHICOPEE,48650,,INTERSTATE TOWING INC,MA,4017664200
170 SOUTH STREET,TOWER,26360,CHICOPEE,7644,,"TONY'S & SON'S A. S.&S.,L,&R.I",MA,4135890901
115 CHESTNUT STREET,TOWER,28307,CLINTON,24487,,GUARANTY AUTO SALES,MA,5083666161
676 MAIN STREET,TOWER,28681,CLINTON,28093,,MAIN STREET AUTO. SERV. CENTER,MA,8772255276
88 WATER STREET,TOWER,31660,CLINTON,52551,,PAUL'S COLLISION & REPAIR,MA,5087623836
115 CHESTNUT STREET,TOWER,28307,CLINTON,24487,,GUARANTY AUTO SALES,MA,5083666161
676 MAIN STREET,TOWER,28681,CLINTON,28093,,MAIN STREET AUTO. SERV. CENTER,MA,8772255276
88 WATER STREET,TOWER,31660,CLINTON,52551,,PAUL'S COLLISION & REPAIR,MA,5087623836
"860 C J CUSHING HWAY, Rte 3A",TOWER,31645,COHASSET,52532,,SCITUATE COLLISION CORP,MA,5087541767
113 MAIN ROAD,TOWER,31549,COLRAIN,52359,JAACH LLC,COLRAIN SERVICE CENTER,MA,4136259437
271 MAIN ROAD,TOWER,29373,COLRAIN,33421,,MARTY'S REPAIR,MA,4135867373
30 PROSPECT STREET,TOWER,21288,DALTON,4873,LUCIEN & RICHARD MARTIN,DALTON AUTO BODY,MA,4135867373
118 HOLTEN STREET,TOWER,21387,DANVERS,4915,d/b/a Al's Auto Repair,AL'S AUTOMOTIVE LLC,MA,9789220086
22 SCHOOL STREET,TOWER,23094,DANVERS,5521,PAUL FINOCCHIARO,DANVERS AUTO BODY&TOWING LLC,MA,9789222288
22 SCHOOL STREET,TOWER,31263,DANVERS,51956,DANVERS AUTO BODY & TOWING LLC,PAUL'S TOWING,MA,9789222288
22R SCHOOL STREET,TOWER,29828,DANVERS,36178,DANVERS AUTO BODY & TOWING LLC,WELLS CAR SALES TOWING,MA,9782363627
653 FAUNCE CORNER ROAD,TOWER,30347,DARTMOUTH,37443,,"DARTMOUTH TOWING, INC.",MA,5087429211
30 RIVER STREET,TOWER,31012,DEDHAM,48904,,BIG JACK'S TOWING,MA,7817623824
1077 EAST STREET,TOWER,31553,DEDHAM,52358,,BILL & MIKE'S AUTOMOTIVE LLC,MA,7814496786
17 ATKINS STREET,TOWER,29229,DEDHAM,32046,,JOHN'S TOWING,MA,6179241100
1077 EAST STREET,TOWER,30444,DEDHAM,48858,"M.L. AUTOMOTIVE SERVICES, INC.",MIKE'S AUTOMOTIVE,MA,5083781166
303 WHITING AVENUE,TOWER,20092,DEDHAM,4483,d/b/a Parkway Towing,"PARKWAY AUTOMOTIVE, INC.",MA,7813294160
767 WILLIAMS STREET,TOWER,28056,DIGHTON,23395,,PACHECO TRUCKING,MA,5086696762
18 TALBOT AVENUE,TOWER,26612,DORCHESTER,7887,SAME,ALWAYS OPEN AUTOMOTIVE INC,MA,5085647200
82 CHRISTOPHER ST,TOWER,20865,DORCHESTER,4736,,"CHEVY AUTO BODY, INC.",MA,8004434513
310 COLUMBIA ROAD,TOWER,31846,DORCHESTER,52811,,KRUEGERS AUTO REPAIR,MA,6174715010
1110 DORCHESTER AVENUE,TOWER,26847,DORCHESTER,17055,,LEE MYLES TRANSMISSIONS,MA,9783227248
150 FREEPORT STREET,TOWER,28585,DORCHESTER,26297,,"PETER'S REP. AND AUTO BODY,INC",MA,5083666161
270 TALBOT AVE.,TOWER,29295,DORCHESTER,32886,,TDT ENTERPRISES,MA,6174365050
243A WEST MAIN STREET,TOWER,28633,DUDLEY,27879,,PRECISION AUTO REBUILDERS INC,MA,8009228381
"120 SCHOFIELD AVE, UNIT 8",TOWER,31801,DUDLEY,52748,,SH AUTO REPAIR LLC,MA,5089430938
1144 B SARATOGA STREET,TOWER,30906,EAST BOSTON,48755,,SPENCER'S TOWING,MA,5083781166
94 REAR CONDOR STREET,TOWER,30821,EAST BOSTON,48623,,"TODISCO SERVICES, INC.",MA,7812612000
60 FRANKLIN ST REAR,TOWER,31849,EAST BRIDGEWATER,52815,TIMOTHY J BAILEY,BAILEY'S TRI TOWN SERVICE,MA,5082794454
556 BEDFORD STREET,TOWER,28146,EAST BRIDGEWATER,24488,,E. J. M. AUTO,MA,5086976963
349 NO. BEDFORD ST.,TOWER,21949,EAST BRIDGEWATER,5103,,PAUL WOLFE MOTOR SALES,MA,5083783991
281 EAST MAIN ST.,TOWER,28210,EAST BROOKFIELD,25534,"PARSONS AUTO, INC.","PARSONS AUTO, INC.",MA,5084719665
174 SHAKER ROAD,TOWER,31020,EAST LONGMEADOW,48931,,"BACH TRUCKING & TRANS., INC.",MA,4133480907
65 MAPLE STREET,TOWER,9840,EAST LONGMEADOW,2874,,CUSTOM TOWING,MA,8772914365
347 ELM STREEt,TOWER,31657,EAST LONGMEADOW,52549,ANDREW C BORDONI,PRIDE TOWING & OFF ROAD RECOVE,MA,4137373539
1 Lovefield Street,TOWER,30839,EASTHAMPTON,48657,JOEL R. KEEFE,Aaron's 24-7 TOWING & RECOVERY,MA,4135273000
278 WASHINGTON STREET,TOWER,27705,EASTON,21073,,TOTAL AUTO REPAIR,MA,5082380056
21 POPLAR MOUNTAIN ROAD,TOWER,8283,ERVING,2712,,ROSELEDGE COMPANIES,MA,4132430089
8 MAIN STREET,TOWER,20226,ESSEX,4529,,ERNIE'S SERVICE,MA,9789272600
6 SCOTtS WAY,TOWER,30387,ESSEX,37492,,"SCOTT'S AUTO CLINIC, INC.",MA,9783528000
52 ROBIN STREET,TOWER,28003,EVERETT,22504,A. G. QUEALY TOWING INC,A. G. QUEALY TOWING INC,MA,7819373200
"96 VERNAL STREET, APT 1",TOWER,31516,EVERETT,52311,KAREN MOSKOFOGLOU,C & C TRANSPORT,MA,6173544640
3 BUELL STREET,TOWER,26635,EVERETT,7925,"PAUL'S TOWING, INC.","PAUL'S TOWING, INC.",MA,7815950400
196 Hutteston Avenue,TOWER,31227,FAIRHAVEN,51906,SARKIS ENTERPRISES INC,A & A AUTO,MA,5089929660
98 MIDDLE STREET,TOWER,31431,FAIRHAVEN,52188,,ARTISTIC AUTO BODY & AUTO SALE,MA,5089949688
99 SPRING STREET,TOWER,31098,FAIRHAVEN,50223,RICHARD N DUSSAULT,SPRING ST GARAGE,MA,5089955580
151 COVE STREET,TOWER,26846,FALL RIVER,16489,,AL PIVA'S GARAGE,MA,5086788341
545 BAY STREET,TOWER,31294,FALL RIVER,52002,,ALL DAY & ALL NIGHT TOWING INC,MA,5086781271
458 Maple Street,TOWER,31664,FALL RIVER,52561,JAMES B PALUMBO,BIG TOW,MA,5086439500
387 BEDFORD STREET,TOWER,25817,FALL RIVER,7045,,BROUGHAM MOTORS INC.,MA,5086736993
232 LAPHAM STREET,TOWER,31476,FALL RIVER,52249,,DOVER TOWING INC,MA,5086757475
155 WILLISTON STREET,TOWER,22044,FALL RIVER,5137,,FALL RIVER AUTO BODY,MA,5086736993
334 PRESIDENTS AVENUE,TOWER,31376,FALL RIVER,52116,MICHAEL CAMARA,JOHN'S AUTO SERVICE,MA,5086757476
96-98 ALDEN STREET,TOWER,31629,FALL RIVER,52507,,MEDEIROS AUTO BODY & SALES INC,MA,5086897504
231 BEDFORD STREET,TOWER,31354,FALL RIVER,52077,ELEVENTH STREET ASSOCIATES INC,SABER AUTO BODY,MA,4017283200
66 WILLIAM ST,TOWER,31818,FALL RIVER,52771,STEVE SYLVIA,STEVE'S TOWING,MA,5086735893
70 WILLIAM STREET,TOWER,30801,FALL RIVER,48603,,TECH SERVICE CENTER,MA,5086735808
322 LAPHAM STREET,TOWER,30802,FALL RIVER,48602,,TONY'S TOWING,MA,8448989151
330 FLINT STREET,TOWER,31709,FALL RIVER,52627,,TROY CITY TOWING LLC,MA,5086781271
235 JOHN STREET,TOWER,31679,FALL RIVER,52576,SALEM Z ALZAIBAK,VIC'S TOWING SERVICE,MA,5089954553
45 SIMPSON LANE,TOWER,13403,FALMOUTH,3216,,MANUEL SYLVESTER,MA,5087711632
45C SIMPSON LANE,TOWER,25680,FALMOUTH,6912,,SANDI'S TOWING,MA,5087711632
130 SPRING STREET,TOWER,30735,FLORENCE,48509,,1812 PAINT & BODY,MA,4135845610
22 MAIN STREET,TOWER,22779,FLORENCE,5395,,FLORENCE TOW & AUTO REPAIR INC,MA,4135860111
24 EAST BELCHER ROAD,TOWER,30582,FOXBOROUGH,37812,,COOK'S TOWING & TRANSPORT INC,MA,5088248666
88 BLANDIN AVE,TOWER,30787,FRAMINGHAM,48576,,"EXCEPTIONAL AUTO BODY, INC.",MA,5086501202
55 PEARL STREET,TOWER,28946,FRAMINGHAM,29860,HEK ENTERPRISE INC.,HENRY'S TOWING & SERVICE CTR,MA,5085647200
175 CROSSING BLVD,TOWER,29357,FRAMINGHAM,34820,,JIM'S AUTO SALES,MA,8882408803
258 IRVING STREET,TOWER,30640,FRAMINGHAM,37919,"SNOW'S GARAGE, INC.",SMITTY'S TOWING,MA,7817623824
272 HOWARD ST,TOWER,31759,FRAMINGHAM,52702,,XPERT REPO AND TOWING INC,MA,7812819688
852 UPPER UNION STREET,TOWER,22255,FRANKLIN,5196,,"EDMUND'S AUTO SALES, INC.",MA,5085283310
79 GROVE STREET,TOWER,30614,FRANKLIN,37863,WEEDY'S INC.,GROVE STREET AUTO REPAIR,MA,5083666161
511 EAST CENTRAL STREET,TOWER,26518,FRANKLIN,7784,PALUMBO BROTHERS INC,PALUMBO BROTHERS INC,MA,7819370050
411 WEST CENTRAL STREET,TOWER,30754,FRANKLIN,48530,,"VENDETTI MOTORS, INC.",MA,8004434513
42 QUANAPOAG ROAD,TOWER,25317,FREETOWN,6613,,BIG WHEEL TRUCK SALES & REPAIR,MA,5086735893
179 WEST STREET,TOWER,30018,GARDNER,36787,,CUSTOM AUTOMOTIVE,MA,4132247118
537 WEST BROADWAY,TOWER,30682,GARDNER,37984,,TJ & SONS AUTO RPR & TOW INC,MA,9788408700
240 WEST STREET,TOWER,18654,GARDNER,4117,,"WEST STREET SERV. CTR., INC",MA,5087547255
14G POND ROAD,TOWER,13977,GLOUCESTER,3286,,TALLY'S,MA,9782831561
281 UPTON ST,TOWER,15353,GRAFTON,3499,,FLEMING'S GARAGE,MA,5082346333
79 OLD UPTON ROAD,TOWER,31462,GRAFTON,52223,JAY M HUSSON,GRAFTON TOWING & RECOVERY,MA,5082346333
423 EAST STATE STREET,TOWER,24830,GRANBY,6315,,MARK'S GARAGE,MA,8882408803
91 STATE ROAD,TOWER,25866,GREAT BARRINGTON,7093,,DECKER'S AUTO BODY,MA,
79 STATE ROAD,TOWER,24133,GREAT BARRINGTON,5959,,"STEVE'S AUTO REPAIR, INC.",MA,4135281000
286 Federal STREET,TOWER,30458,GREENFIELD,37626,,BYRNE RACING & USED AUTOS,MA,4138634373
30 COLRAIN STREET,TOWER,1512,GREENFIELD,1176,,"CLAYTON D. DAVENPORT, JR.",MA,4135945984
286 FEDERAL STREET,TOWER,5537,GREENFIELD,2303,,"GOLY'S GARAGE, INC.",MA,4137739913
370 DEERFIELD STREET,TOWER,31500,GREENFIELD,52278,DARRYL A KIMPLIN/SAM H CALKINS,KIMPLIN'S RT 5 AUTO,MA,4138634373
44 MAIN STREET,TOWER,18967,GREENFIELD,4188,,"KOCH'S AUTOMOTIVE, INC.",MA,4132626952
295 DEERFIELD STREET,TOWER,15004,GREENFIELD,3447,,"SIRUM & CO. INC., LEON L.",MA,4135387862
445 MAIN STREET,TOWER,30528,GROTON,37716,,"GROTON TOWING, INC.",MA,5087565159
8 FEDERAL WAY SUITE #10,TOWER,31788,GROVELAND,52754,,BELFI TOWING & RECOVERY LLC,MA,9787778880
737 SALEM STREET,TOWER,29872,GROVELAND,36518,,PRICE-RITE AUTOMOTIVE,MA,9783880019
97 RUSSELL STREET,TOWER,31015,HADLEY,48898,,"HADLEY AUTO SERVICE, INC.",MA,5087392900
400 INDUSTRIAL DRIVE,TOWER,31899,HALIFAX,52893,DMC RACING LLC,DMC RACING LLC,MA,8003337234
822 OLD PLYMOUTH STREET,TOWER,28810,HALIFAX,28987,,ELLIS AUTO BODY,MA,7812936331
925 PLYMOUTH STREET,TOWER,31389,HALIFAX,52130,RICHARD GREENE,RG AUTOMOTIVE Inc.,MA,7818266484
20 COMMERCIAL DRIVE,TOWER,30564,HAMPDEN,37795,"MARINI, CORBY",HAMPDEN TOWING,MA,4135439119
224 MAIN STREET,TOWER,30501,HAMPDEN,37688,,NORTHEAST TOWING AND RECOVERY,MA,4138875132
183 coulumbia road,TOWER,21370,HANOVER,4908,,"ANDY'S OF PEMBROKE, INC.",MA,7812935500
218 COLUMBIA ROAD,TOWER,31150,HANOVER,51827,,CAPEWAY TOWING INC,MA,7818263804
437 EAST WASHINGTON STREET,TOWER,31596,HANSON,52445,TIMOTHY MCQUARRIE,MCQUARRIE AUTO ENGINEERING,MA,7812936331
144 EAST WASHINGTON STREET,TOWER,30948,HANSON,48806,,TRANS TECH,MA,7818263804
182 QUEEN ANNE ROAD,TOWER,31858,HARWICH,52824,ALL CAPE TRUCK SERVICE LLC,ALL CAPE TRUCK SERVICE LLC,MA,5082481440
112 HALE ST,TOWER,30718,HAVERHILL,38054,,110 TOWING CO,MA,8009228276
221 ESSEX STREET,TOWER,31036,HAVERHILL,48920,STEPHEN J LEBLANC,BRADFORD TOWING CO,MA,7819422225
17 LAFAYETTE STREET,TOWER,30356,HAVERHILL,37476,,FCC TOWING,MA,5083666161
767 MAIN ST,TOWER,22749,HAVERHILL,5386,,MAIN ST MOBIL,MA,7817298770
15 FORT HILL STREET,TOWER,19129,HINGHAM,4226,,THOMAS AUTO BODY SHOP INC,MA,8882408803
970 MIDDLEFIEDL RD,TOWER,31814,HINSDALE,52762,PAUL A LAROCHELLE,LAROCHELLE AUTO RESTORATION,MA,4136842384
6 WEYMOUTH STREET,TOWER,31325,HOLBROOK,52040,,MCGRATH'S TOWING & RECOV INC,MA,7818372300
472 SOUTH FRANKLIN STREET,TOWER,31634,HOLBROOK,52526,,OBRIEN CAR CARE INC,MA,7817672400
776 SOUTH FRANKLIN STREET,TOWER,30830,HOLBROOK,48651,,"PINE HILL SERVICE STATION, INC",MA,8004989900
236 PLYMOUTH STREET,TOWER,16906,HOLBROOK,3774,,"REVITALIZE AUTO RECON., INC.",MA,6178470005
94 RESERVOIR STREET,TOWER,30607,HOLDEN,37858,,"VILLAGE REPAIR, INC.",MA,5086203442
229 LOWLAND ST,TOWER,31862,HOLLISTON,52836,HOLLISTON TOWING INC.,HOLLISTON TOWING INC.,MA,5084292100
439 WASHINGTON STREET,TOWER,31411,HOLLISTON,52162,,HOMETOWN AUTO SVC&SALES INC,MA,5087547255
85 CENTRAL STREET,TOWER,29329,HOLLISTON,32755,,NICK'S CENTRAL GARAGE,MA,7817623824
1537 NORTHAMPTON STREET,TOWER,9682,HOLYOKE,2849,,REARDON'S GARAGE,MA,4137333131
96 MAIN STREET,TOWER,30225,HOPKINTON,37121,,MAIN ST. SERVICE CENTER,MA,6174471208
401 B RIVER ROAD,TOWER,22222,HUDSON,5186,,COUNTRYSIDE TOWING,MA,5084818200
469 RIVER rd  ste3,TOWER,31472,HUDSON,52232,KENNETH WINCHESTER II,KENNY'S REPO & RECOVERY SPEC,MA,9786672541
91R FALMOUTH ROAD,TOWER,30423,HYANNIS,37550,,ALL CAPE TOWING & REPAIR,MA,5085402609
116 RIDGEWOOD AVENUE,TOWER,18119,HYANNIS,4009,,"BUCKLER'S TOWING SERVICE, INC.",MA,5087711632
100 SCUDDER AVENUE,TOWER,22077,HYANNIS,5144,,CAPEWAY TOWING SERVICE,MA,5086735893
50 AIRPORT ROAD,TOWER,30462,HYANNIS,37632,MASHPEE ROTARY INC,DAVIS TOWING,MA,6174365050
345 BARNSTABLE ROAD,TOWER,12266,HYANNIS,3092,,"ROTARY AUTO TOWING COMP., INC.",MA,5087750011
1035 HYDE PARK AVE,TOWER,31891,HYDE PARK,52882,,AKIKI AND SONS INC,MA,5083666161
750 HYDE PARK AVE,TOWER,31620,HYDE PARK,52490,,ANYTIME TOWING INC,MA,5084594700
1620 HYDE PARK AVENUE,TOWER,30717,HYDE PARK,38035,RAFAEL FELICIANO JR,METRO TOWING,MA,6179651830
3430 WASHINGTON STREET,TOWER,9200,JAMAICA PLAIN,2776,,STANLEY SERVICE INC,MA,7819373200
101 PEMBROKE STREET,TOWER,23388,KINGSTON,38028,,CENTER REPAIR & MACHINE CO.,MA,6174365050
44 WILLIAM C. GOULD JR. WAY,TOWER,31253,KINGSTON,51941,,S & S TRANSPORT INC,MA,5085647200
11 JOSEPH STREET,TOWER,30371,KINGSTON,37482,COLLARI AUTOMOTIVE,TIGER TOWING,MA,5084594700
37 MAIN STREET SUITE 6,TOWER,31348,KINGSTON,52073,DAVID NORDBY,TOTAL TRANSMISSION SERVICE,MA,7815856050
1 FERN AVENUE,TOWER,31574,LAKEVILLE,52406,MARK A LUCAS,AFFORDABLE AUTO REPAIR&TOWING,MA,7818487652
35 TAUNTON STREET,TOWER,31492,LAKEVILLE,52261,,LAKEVILLE AUTO SALES,MA,5089439000
25 PICKENS ST,TOWER,21522,LAKEVILLE,4957,,MID-TOWN AUTO BODY,MA,5085865310
164 HIGH STREET EXT.,TOWER,22211,LANCASTER,5182,"TJM AUTO BODY, INC.",LANCASTER A-1 AUTO BODY/HENNA,MA,8882408803
60 POTTER MOUNTAIN ROAD,TOWER,2820,LANESBOROUGH,1552,"SAYERS AUTO WRECKING, INC.","SAYERS AUTO WRECKING, INC.",MA,4134436428
800 CHESHIRE ROAD,TOWER,12997,LANESBOROUGH,3166,,"VILLAGE TRUCK SALES, INC.",MA,4136632392
139 MARSTON STREET,TOWER,4710,LAWRENCE,2080,,COADY'S GARAGE & TOWING SERVIC,MA,8882408803
4  MEDFORD STREET,TOWER,30349,LAWRENCE,37438,,MIKE & WILLIE'S AUTO ACCE.&TWG,MA,7819370220
354 WATER STREET,TOWER,15726,LAWRENCE,38000,,"TOWER HILL TOWING SERVICE, IN.",MA,
35 RUN WAY,TOWER,5363,LEE,2265,,RW'S INC,MA,4132985584
1323 MAIN ST,TOWER,31843,LEICESTER,52808,,CLASSIC AUTOMOTIVE INC,MA,5088928133
14 HUNTOON MEMORIAL HWY.,TOWER,25716,LEICESTER,6947,,DEER POND AUTO,MA,8006881825
800 MAIN STREET,TOWER,15891,LEICESTER,3592,,ENTWISTLE'S GARAGE INC,MA,8009512100
81 SOUTH MAIN ST,TOWER,31766,LEICESTER,52707,RAUL ROMAN,RAUL'S AUTOMOTIVE,MA,5089439000
90 MAIN STREET,TOWER,23920,LENOX,5853,,HOFF'S MOBIL,MA,4132430089
ONE CRYSTAL STREET,TOWER,31267,LENOXDALE,51951,,LENOXDALE SERVICE STATION INC,MA,8773147315
25 MOHAWK DRIVE,TOWER,31713,LEOMINSTER,52633,,A&G TOWING REPAIR CORP,MA,9783436946
89 MARGUERITE AVENUE,TOWER,12689,LEOMINSTER,3132,,ABLE AUTO BODY & GLASS,MA,9783434853
8 CROSS STREET,TOWER,21234,LEOMINSTER,4858,"ACME AUTO BODY REPAIRING, INC.","ACME AUTO BODY REPAIRING, INC.",MA,9785345133
20 Moore STREET,TOWER,24563,LEOMINSTER,6170,,AMERICAN TOWING,MA,9783454131
37 NINTH STREET,TOWER,9764,LEOMINSTER,2864,IMPERIAL AUTO PARTS INC,ET COTE AUTO EXCHANGE,MA,8004434513
199 VISCOLOID AVENUE,TOWER,29682,LEOMINSTER,35181,SAME,"IMPERIAL AUTO BODY & SALES, IN",MA,9783421444
727 LANCASTER STREET,TOWER,22071,LEOMINSTER,52832,QUALITY AUTO BODY,QUALITY TOWING & RECOVERY INC,MA,9783436946
260 LANCASTER ROAD,TOWER,16154,LEOMINSTER,3640,"PIERMARINI, INC., RICK",RICKY'S TOWING,MA,5087598022
7 MASSACHUSETTS AVENUE,TOWER,13657,LEXINGTON,3242,,MAL'S NIGHT & DAY TOWING CO.,MA,7818615200
546 PROVIDENCE ROAD,TOWER,30551,LINWOOD,37743,,"HARBRO SALES & SERVICE, INC.",MA,5087565159
1516 MIDDLESEX STREET,TOWER,31453,LOWELL,52212,ATLANTIC COLLISION CENTER,CARSTAR ATLANTIC COLLISION,MA,9784759150
50 FIRST STREET BOULEVARD,TOWER,14564,LOWELL,3374,,"GULBICKI'S, INC",MA,8009228276
256 SMITH STREET,TOWER,22946,LOWELL,5451,,KAZANJIAN'S AUTO  REP SHOP IN,MA,8882408803
615 DUTTON STREET,TOWER,21691,LOWELL,5008,,KAZANJIAN'S GARAGE INC,MA,8004434513
26 TANNER STREET,TOWER,31245,LOWELL,51937,,LOWELL FLEET TOWING INC,MA,4014353600
97 TANNER STREET,TOWER,29474,LOWELL,33580,,"STUART'S AUTOMOTIVE, INC.",MA,8004434513
381 MASS. AVENUE,TOWER,30364,LUNENBURG,37471,,"MASS AVE MOTORS, INC.",MA,9788408700
3 CHASE ROAD,TOWER,31293,LUNENBURG,51989,,VICTORY LANE TOWING,MA,9785824964
234 CHESTNUT STREET,TOWER,23017,LYNN,5487,,FLEMING'S TOWING,MA,5089781166
1117R Western Avenue,TOWER,31109,LYNN,51586,,MASS RECOVERY BUREAU INC,MA,6179566000
234 Chestnut STREET,TOWER,11084,LYNN,3000,,"WOODS TOWING SERVICE INC., BIL",MA,6172850826
469 BROADWAY,TOWER,17587,MALDEN,7225,,99 TOWING & TRUCK,MA,9788408700
356 LEBANON ST,TOWER,24801,MALDEN,6301,,ANDY'S SERVICE CENTER,MA,7813249621
1114 Eastern Avenue,TOWER,31838,MALDEN,52805,RTS ENTERPRISES CORP,EASTSIDE TOWING SERVICE,MA,7813219700
35 CANAL STREET,TOWER,30817,MALDEN,48616,,MALDEN-MIDDLESEX MTR SALES IN,MA,7819422225
271 BROADWAY,TOWER,15951,MALDEN,3606,,"MAPLEWOOD MOTORS, INC.",MA,6176251914
1081 FELLSWAY,TOWER,22955,MALDEN,5455,,"RIGANO'S TOWING SERVICE, INC.",MA,9786646585
549 ELM STREET,TOWER,30722,MANSFIELD,38046,,JIM'S AUTO SVCS & TOWING INC,MA,5086950314
53 CENTRAL STREET,TOWER,16915,MARLBOROUGH,3780,,"CENTRAL AUTO REBUILDERS, INC.",MA,5082794454
109 FITCHBURG STREET,TOWER,28396,MARLBOROUGH,26020,"LAND'S TOWING & SERVICE, INC.","LAND'S TOWING & SERVICE, INC.",MA,5084850130
492 SOUTH STREET,TOWER,21545,MARLBOROUGH,4963,"PRECISION AUTO BODY, INC.","PRECISION AUTO BODY, INC.",MA,5086979662
9 MILL STREET,TOWER,30648,MARLBOROUGH,37937,,SOUCY'S AUTO BODY,MA,5084853306
412 SOUTH STREET,TOWER,31707,MARLBOROUGH,52628,ALAN BRODEUR'S AUTO BODY INC,SOUTH STREET AUTO PARTS,MA,5084808808
835 PLAIN ST,TOWER,31781,MARSHFIELD,52720,MICHAEL J CHRISTIE,ANDY'S TOWING LLC,MA,7812935500
847 WEBSTER ST UNIT 6,TOWER,31747,MARSHFIELD,52686,,CJV AUTOMOTIVE & TOWING,MA,7818488600
221 SUMMER STREET,TOWER,20017,MARSHFIELD,4464,,MARSHFIELD AUTO BODY,MA,
359 FOREST STREET,TOWER,31734,MARSHFIELD,52655,"THOMAS, BRIAN AND MARY ROFFEY",ROFFEY FAMILY ENTERPRISES,MA,9782234037
875 PLAIN STREET,TOWER,31537,MARSHFIELD,52340,,SAFEWAY TOWING LLC,MA,7814496786
135 MAIN STREET/ROUTE 130,TOWER,31081,MASHPEE,50203,,ACCESS AUTO TOO INC,MA,8882408803
1590 BLUE HILL AVENUE,TOWER,24201,MATTAPAN,5991,,AUTO SERVICE & TIRE INC,MA,5082794454
33 EDGEWATER DRIVE,TOWER,28786,MATTAPAN,28845,DAVID E. GRANT,PRECISION AUTO BODY,MA,4132457600
3 COUNTY ROAD,TOWER,16363,MATTAPOISETT,3676,,"DECOFFE AUTOMOTIVE SERVICE,INC",MA,5089973321
7 MILL STREET REAR,TOWER,31647,MAYNARD,52533,CJ RECOVERY INC,CJ AUTO & TOW,MA,6179693240
162 Alewife,TOWER,13285,MAYNARD,3197,,"JARMO'S AUTO REPAIR, INC.",MA,9784751146
22 R LINDEN ST,TOWER,31839,MEDFORD,52806,,AUTOMOTIVE TRANSPORT SERVICE L,MA,8882408803
50 Mystic Avenue,TOWER,31117,MEDFORD,51605,,EXPORT ENTERPRISES OF MASS INC,MA,3125957165
435 R RIVERSIDE AVE,TOWER,30569,MEDFORD,37804,SAME,HI TOW INC,MA,5085647200
12 LOCUST STREET,TOWER,1087,MEDFORD,994,,NORTH ATLANTIC,MA,7819422225
50 Mystic Avenue,TOWER,31499,MEDFORD,52274,Export Enterprises,PAT'S TOWING INC,MA,3125957165
20 SYCAMORE AVE,TOWER,31911,MEDFORD,52902,RAPID RESPONSE LLP,RAPID RESPONSE LLP,MA,7813219700
60 UNION STREET,TOWER,30543,MEDFORD,37745,,STEPHENS AUTOMOTIVE TRANSP INC,MA,7819373200
27 JAYAR ROAD,TOWER,26806,MEDWAY,16243,,JOHN'S AUTO BODY,MA,5083666161
71 MAIN STREET,TOWER,31194,MEDWAY,51933,,NWG AUTOMOTIVE REPAIR INC,MA,5085335141
140 TREMONT STREET,TOWER,25685,MELROSE,6917,,"STEPHENS TOWING, Inc.",MA,7816652990
69 HARTFORD AVE - WEST,TOWER,24976,MENDON,6395,,BUD AND SON AUTO BODY,MA,5082346333
152 UXBRIDGE ROAD,TOWER,17028,MENDON,3805,,HOWLEY'S AUTOMOTIVE,MA,5084730556
20 CAPE ROAD,TOWER,28909,MENDON,29614,,"SUTFOL AUTO SALES, INC.",MA,7817627300
115R WEST MAIN STREET,TOWER,26461,MERRIMAC,7759,,EDGEMONT GARAGE,MA,5086926904
27-33 HAVERHILL STREET,TOWER,7367,METHUEN,2652,"MARTINEAU'S GARAGE, INC.",MARTINEAU'S TOWING SERVICE,MA,7812450888
26 LAWRENCE STREET,TOWER,30672,METHUEN,37959,,SHEEHAN'S TOWING LLC,MA,8004434513
150 MERRIMACK STREET,TOWER,8776,METHUEN,2748,,"VALLEY TOWING, INC.",MA,9786575100
39 RIVER STREET,TOWER,31209,MIDDLEBOROUGH,51882,JEFFREY SEAMAN,JEFF'S TOWING,MA,5085647200
428 WAREHAM STREET,TOWER,29935,MIDDLEBOROUGH,36702,,"JOSEF'S AUTO SALES, INC.",MA,5089954553
16 Cushman Street,TOWER,30766,MIDDLEBOROUGH,48551,CHRISTOPHER THOMAS,MODERN TOWING,MA,5085647200
87 FOREST STREET,TOWER,25117,MIDDLETON,52766,,DAVES TOWING CO INC,MA,9789272600
93 CEDAR STREET,TOWER,9492,MILFORD,2818,ARTS TOWING INC,ART'S AUTO SERVICE,MA,5087547255
7 CHARLES RIVER STREET,TOWER,30746,MILFORD,48517,,AUTOGO INC.,MA,5083666161
51 E.  MAIN STREET,TOWER,31483,MILFORD,52255,MARK'S TRANSPORTATION LLC,MARK'S TOWING,MA,8008408842
12 SOUTH FREE STREET,TOWER,31859,MILFORD,52855,,SANTOS GARAGE INC,MA,9784594547
60 WEST STREET,TOWER,31128,MILFORD,51792,TREVOR GOULETTE & JOSEPH PROIA,TONY'S COLLISION,MA,5084730556
139 WORCESTER-PROVIDENCE HWY,TOWER,30758,MILLBURY,48529,,DIRENZO TOWING & RECOVERY INC,MA,5087555944
531 TURNERS FALLS ROAD,TOWER,21106,MONTAGUE,4822,,RAU'S SUNOCO SERVICE,MA,4138634373
24 POLPIS ROAD,TOWER,31622,NANTUCKET,52488,,DON ALLEN AUTO SERVICE INC,MA,8772255276
36 SPARKS AVENUE,TOWER,20769,NANTUCKET,4702,,NANTUCKET AUTO BODY INC,MA,5082280344
55 MIDDLESEX AVENUE,TOWER,24183,NATICK,5984,,A B COACH AND CARRIAGE INC,MA,5086533131
36 SOUTH MAIN STREET,TOWER,24073,NATICK,48750,,MABARDY'S GULF SERVICES INC,MA,8003337234
8 HARRISON STREET,TOWER,15935,NATICK,3600,,"MIDDLESEX AUTO BODY CO., INC.",MA,5083666161
13 COCHITUATE STREET,TOWER,31333,NATICK,52053,,SANSOSSIO AUTO BODY - NATICK,MA,5086533131
9 BRICHER STREET,TOWER,21860,NEWBURYPORT,5068,GERALD S. VOLPONE,VOLPONE TOWING SERVICE,MA,9784655301
98 POND STREET,TOWER,31531,NORFOLK,52342,AUGUSTINE CENTOLA,C & E AUTO BODY,MA,7817622300
38 MAIN STREET,TOWER,15736,NORFOLK,3568,,"NORFOLK AUTO, INC.",MA,8009226757
676 CURRAN HIGHWAY,TOWER,25967,NORTH ADAMS,7269,,CARIDDI AUTO AGENCY,MA,4132430089
528 CURRAN HIGHWAY,TOWER,25393,NORTH ADAMS,52813,JOSEPH T DEAN,DEAN'S QUALITY AUTO & TRUCK RE,MA,4132430089
1519 CURRAN HIGHWAY,TOWER,30876,NORTH ADAMS,48720,,MOHAWK AUTO SALES,MA,4137431216
141-153 SUTTON STREET,TOWER,20375,NORTH ANDOVER,4573,,"TROMBLY BROS., INC.",MA,8882408803
525 JOHN DIETSCH BOULEVARD,TOWER,31710,NORTH ATTLEBORO,52624,,RIEL AUTO BODY LLC,MA,5088951441
96 BOSTON ROAD,TOWER,9604,NORTH BILLERICA,2835,,STAN'S GENERAL AUTO SERVICE,MA,9786642000
69 DONOVAN ROAD,TOWER,31207,NORTH BROOKFIELD,51885,,COUNTRY AUTO BODY INC,MA,5087565159
65 DONOVAN ROAD,TOWER,13324,NORTH BROOKFIELD,3203,,HUCK'S DIESEL & TOWING SERVICE,MA,5087565159
"50 TYNGSBORO ROAD, RT 3A",TOWER,20080,NORTH CHELMSFORD,4482,,"DUFFY'S AUTO COMPANY, INC.",MA,9784245752
112 REAR HAVERHILL STREET,TOWER,23509,NORTH READING,5674,,BAY ST. NO. TOW.-BAY ST. REC S,MA,7816652990
25 HICKORY LANE,TOWER,31739,NORTH READING,52673,,INCIDENT CLEAR LLC,MA,6178470005
32 DAMON ROAD,TOWER,9978,NORTHAMPTON,2895,,CAHILLANE AUTO BODY,MA,4135865011
376 EASTHAMPTON ROAD,TOWER,18615,NORTHAMPTON,4106,"WAYSIDE AUTO BODY, INC.",ERNIE'S TOWING,MA,3152145822
19 HOLYOKE STREET,TOWER,14105,NORTHAMPTON,52410,,"HAROLD'S GARAGE, INC.",MA,5087474292
531 MT HERMON STATION ROAD,TOWER,31904,NORTHFIELD,52895,TIMOTHY O'SHEA,O'SHEA'S REPAIR,MA,4137739913
61 KING PHILLIP RD,TOWER,22323,NORTON,5224,,EDD'S AUTO REPAIR,MA,8009725348
97 OAK STREET,TOWER,30377,NORTON,37488,,FOGERTY'S TOWING,MA,7813295420
85 MANSFIELD AVENUE REAR,TOWER,31737,NORTON,52669,,MIDWAY TOWING AND RECOVERY LLC,MA,7814496786
724 MAIN STREET,TOWER,13498,NORWELL,3228,,JOSEPH'S PONTIAC,MA,7818265161
101 CARNEGIE ROW,TOWER,9423,NORWOOD,2808,NORWOOD CENTER AUTO BODY INC,CENTER AUTO BODY,MA,7818487652
63 MORSE STREET,TOWER,30741,NORWOOD,48511,,DICK WILLIAMS INC.,MA,5082794454
176 WORCESTER AVENUE,TOWER,24997,OAK BLUFFS,6405,,BUDDY'S AUTO & TRK REP. SERV.,MA,7813564141
726 SOUTH MAIN STREET,TOWER,24798,ORANGE,6299,,BOB'S TOWING & SERVICE,MA,8004434513
48 KING STREET,TOWER,26579,ORANGE,7829,,DICK'S AUTO REPAIR,MA,9782493273
38 SMITH AVENUE,TOWER,25840,ORANGE,7067,,JIM'S AUTO,MA,9782493273
456 MAIN STREET,TOWER,23349,OXFORD,5602,,BONNETTE'S AUTOMOTIVE INC,MA,5087547255
241 WILBRAHAM STREET,TOWER,14512,PALMER,3366,,LABONTE & SON,MA,4132838378
324 PLEASANT STREET,TOWER,31795,PAXTON,52746,ROBERT A DOLAN,PAXTON AUTO REPAIR + COLLISION,MA,5087523300
255 ANDOVER STREET,TOWER,30630,PEABODY,51818,READING AUTO BODY CLINIC INC,AUTO BODY CLINIC INC,MA,6174891700
134 Rear NEWBURY STREET,TOWER,30822,PEABODY,48626,SAME,"FOUR STAR SERVICE, INC.",MA,8772255276
161 WASHINGTON STREET,TOWER,29332,PEABODY,33181,,"MALLIA'S TOWING, INC.",MA,6178470005
44 ELLSWORTH ROAD,TOWER,27163,PEABODY,17846,,"PHIL'S TWG. & REC. SERV., INC.",MA,9787504474
0 CORWIN STREET,TOWER,31535,PEABODY,52335,,WC GURRISI & SONS INC,MA,5086684100
17 NASHUA ROAD,TOWER,30352,PEPPERELL,37563,,AUTO CLINIC,MA,9786616915
41-9 LOMAR PARK,TOWER,31872,PEPPERELL,52854,LON H MORINE,EASTBOUND TRANSPORT,MA,7812728306
52 GROTON STREET,TOWER,31003,PEPPERELL,48882,"KIRK MOTOR WORKS, INC.",KEMP'S SERVICE STATION,MA,9784432777
44 NORTH STREET,TOWER,31165,PEPPERELL,51838,,R. H. WILLSON INC,MA,8882408803
6 NORTH ROAD,TOWER,26296,PERU,7628,,JERRY'S TOWING SERVICE,MA,4134488224
145 QUEEN LAKE ROAD,TOWER,29298,PHILLIPSTON,32750,,QUEEN LAKE AUTO REPAIR,MA,9786321098
297 SOUTH STREET,TOWER,30823,PLAINVILLE,48617,DALE RONHOCK,RONHOCK'S TOWING SERVICE,MA,5086517700
160 SOUTH STREET,TOWER,21954,PLAINVILLE,5106,,T & D AUTO & TRK. SERV. CTR. I,MA,5086957051
PO BOX 1124,TOWER,21874,PLYMOUTH,5073,MCCARTHY TOWING INC,ALMEIDA'S TOWING,MA,5085647200
53 SAMOSET STREET,TOWER,14974,PLYMOUTH,3441,,CAPE AUTO BODY,MA,7818437000
104 SANDWICH ST.,TOWER,27322,PLYMOUTH,18610,,"GELLAR, STEPHEN",MA,5087471400
506 STATE ROAD,TOWER,10103,PLYMOUTH,2906,,P GELLAR'S SVC  STATION INC,MA,5082243600
10 COLUMBUS ROAD,TOWER,30145,PLYMOUTH,37038,,PAUL ALMEIDA 24 HR. TOWING,MA,5089946988
45 SOUTH STREET,TOWER,30555,PLYMOUTH,37741,,PERFORMANCE AUTOMOTIVE & TOW,MA,7815856050
114 LONG POND ROAD,TOWER,31773,PLYMOUTH,52713,,PLYMOUTH TAYLOR EQUIPMENT RENT,MA,9257983334
2235 STATE ROAD,TOWER,25427,PLYMOUTH,6686,,RICHIE'S TOWING,MA,5082240169
86 REAR SOUTH STREET,TOWER,23036,PLYMOUTH,5496,,SOUZA'S TOWING & REPAIR,MA,5089949688
18 COLUMBUS ROAD,TOWER,25346,PLYMOUTH,6631,,VANCE'S AUTO BODY,MA,5087467990
70 COUNTY ROAD,TOWER,25905,PLYMPTON,7130,,NEW ENGLAND CARRIAGE SHOP,MA,9786642000
"70 COUNTY RD., RT 106",TOWER,24541,PLYMPTON,6157,,SOUTH SHORE TOWING,MA,7812936331
RT. 28,TOWER,10707,POCASSET,2970,,KENT AUTO,MA,5085647200
18 COMMERCE PARK ROAD,TOWER,31633,POCASSET,52520,,MIRACLE REPAIR & REFINISHING,MA,7814496786
54 PORTSIDE DRIVE,TOWER,31021,POCASSET,48906,"DIAMOND COLLISION SPEC, INC.",PORTSIDE TOWING,MA,5089949688
42 CONWELL STREET,TOWER,25706,PROVINCETOWN,6937,,ROD'S SERVICE STATION,MA,5084899044
450 SOUTHERN ARTERY,TOWER,23675,QUINCY,5745,,"BEARDE & SONS, JIM",MA,7818437000
313 WILLARD STREET,TOWER,17834,QUINCY,3956,,BIONDI'S SERVICE CENTER,MA,6174716781
258 Willard Street,TOWER,20960,QUINCY,4769,,"BLUE HILLS TOWING CO., INC.",MA,6176982200
440B E. SQUANTUM ST.,TOWER,22399,QUINCY,5244,,CW AYERS INC,MA,7816083147
299 CENTRE STREET,TOWER,23665,QUINCY,5741,SAME,SCHLAGERS AUTO BODY REPAIR INC,MA,5087598022
298 North Street,TOWER,31290,RANDOLPH,51982,CHARLES & LISA MORA,C & L TOWING,MA,6174365050
536 SOUTH MAIN STREET,TOWER,30430,RANDOLPH,5271,,"L & W AUTO BODY, INC.",MA,7819633303
679 SOUTH STREET WEST,TOWER,31307,RAYNHAM,52011,,HARRY'S AUTOBODY INC,MA,5084594700
1525 NEW STATE HIGHWAY,TOWER,20463,RAYNHAM,4597,,"MASTRIA BUICK PONTIAC,GMC TRK",MA,6037219833
703 SOUTH STREET EAST,TOWER,31149,RAYNHAM,51828,,PETTY CASH TOW & RECOV INC,MA,5085647200
648 CHURCH STREET,TOWER,30503,RAYNHAM,37687,,"TINO'S TRUCK SERVICE, INC.",MA,5086735893
4 MINOT STREET,TOWER,30870,READING,48712,"N. READING AUTO REPAIR, INC.",GRAY'S TOWING,MA,8883334949
4 B FALLS STREET,TOWER,31609,REHOBOTH,52475,AUTOSHOW TOWING AND RECOVERY L,AUTOSHOW TOWING AND RECOVERY L,MA,7817623824
1087 BROADWAY,TOWER,30879,REVERE,48721,,ACTION EMERGENCY MGMT SVCS INC,MA,7812892233
22 WHITIN AVENUE,TOWER,22041,REVERE,5135,,"G/J TOWING, INC.",MA,4139673327
977 BROADWAY,TOWER,31312,REVERE,52026,"MARIO'S SERVICE CENTER, INC.","MARIO'S SERVICE CENTER, INC.",MA,5082794454
1420 D NORTH SHORE ROAD,TOWER,31065,REVERE,50181,,MARTINEZ TOW & TRANS CORP,MA,6175676558
577 MARKET STREET,TOWER,31107,ROCKLAND,51583,,LOU'S AUTO BODY INC,MA,7815456400
274 NEWBURYPORT TPK.,TOWER,25869,ROWLEY,7096,,"GINO'S COLLISION CENTER, INC.",MA,7819422225
74 MAPLE AVENUE,TOWER,18858,RUTLAND,4163,,"BILL'S GARAGE OF RUTLAND, INC.",MA,5087565159
50 MAPLE AVENUE,TOWER,28089,RUTLAND,23977,RUTLAND TOWING INC,RUTLAND TOWING INC,MA,5087565159
MAIN ST. - RTE. 6A,TOWER,10238,SAGAMORE,2924,,"KNOWLTON'S GARAGE, INC.",MA,5089949688
15 ROBINSON ROAD,TOWER,20872,SALEM,4741,,A & H AUTO EXCHANGE,MA,6172850826
171 BOSTON STREET,TOWER,30355,SALEM,37477,,"ALLSTAR ENTERPRISES, INC.",MA,5083781169
2 COMMERCIAL STREET,TOWER,19953,SALEM,4440,,"BILL'S AUTO CLINIC, INC.",MA,5085647200
110 JEFFERSON AVENUE,TOWER,11395,SALEM,3024,,"BOUCHARD & SON, INC.",MA,9787444400
43 ESSEX STREET,TOWER,17836,SALEM,3958,,"NORTH SHORE AUTO CLINIC, INC.",MA,7814312500
158 ELM STREET,TOWER,31514,SALISBURY,52303,,SEACOAST COLLISION CENTER INC,MA,6173120630
16 MAIN STREET,TOWER,31539,SALISBURY,52355,JJED CORPORATION,SIMMIES TOWING,MA,8004434513
7 Tolland Road,TOWER,23638,SANDISFIELD,52635,,A & M AUTO SERVICE,MA,4132430105
4 Merchant Square,TOWER,31630,SANDWICH,52506,BD TRANSPORT & LOGISTICS INC,BIG DOG AUTO TRANSPORT,MA,
4 Merchant Square,TOWER,31630,SANDWICH,52506,BD TRANSPORT & LOGISTICS INC,BIG DOG AUTO TRANSPORT,MA,
1481 BROADWAY,TOWER,27169,SAUGUS,17837,,PAUL V MCGARVEY TRANS OF MV,MA,
45 WOODLAND AVE.,TOWER,30768,SEEKONK,48571,,"ADVANCED TOWING, INC.",MA,8772255276
102B Pond Street,TOWER,31533,SEEKONK,52345,JEREMY D REIS,ALL MOBILE TOWING,MA,5082523312
1872 FALL RIVER AVENUE,TOWER,27801,SEEKONK,20656,"HOLLISTER AUTO, INC.","HOLLISTER AUTO, INC.",MA,5083368900
87 POND STREET,TOWER,14915,SEEKONK,3430,,NORM'S AUTO BODY,MA,5082225252
1849 FALL RIVER AVENUE,TOWER,30375,SEEKONK,37486,,OCEAN STATE TOWING,MA,7816429000
32 INDUSTRIAL COURT,TOWER,30884,SEEKONK,48724,A & N AUTO BODY,SEEKONK AUTO BODY,MA,4014319200
303 NORTH MAIN STREET,TOWER,17872,SHARON,3965,,"ANNEX AUTO, INC.",MA,8008526677
1924 NO. MAIN STREET,TOWER,25350,SHEFFIELD,6634,,BACHETTI'S AUTO BODY,MA,4137392900
ROUTE 7,TOWER,27831,SHEFFIELD,21719,,WATSON AUTOMOTIVE,MA,4137392900
280 GREAT ROAD,TOWER,28075,SHIRLEY,23950,"MOHAWK VILLAGE MOTORS, INC.","MOHAWK VILLAGE MOTORS, INC.",MA,9783454131
200 AYER ROAD,TOWER,31652,SHIRLEY,52535,DAVID JOHN WARILA SR,WARILA'S AUTO REPAIR & SALES,MA,9784332777
632 Lake Street,TOWER,8890,SHREWSBURY,2758,,LOVEY'S,MA,5085647200
161 PRATT COR. ROAD,TOWER,29176,SHUTESBURY,31639,,CLARK AUTO WRECKING,MA,
4095 COUNTY STREET,TOWER,30106,SOMERSET,36987,,DIAMOND SALVAGE & SERVICE,MA,7813228766
1350 G.A.R. HIGHWAY,TOWER,21555,SOMERSET,4967,,MATHIEU AUTO SALES INC,MA,5086755557
1214 G A R HIGHWAY,TOWER,26331,SOMERSET,7626,,SOMERSET AUTO SERVICE,MA,5086796486
161 LINWOOD STREET,TOWER,25318,SOMERVILLE,6614,,"PAT'S AUTO BODY, INC.",MA,5083666161
8 FISK AVENUE,TOWER,31432,SOMERVILLE,52191,ERICA SUTHERLAND,S & S TOWING & RECOVERY,MA,6172980655
1 ELLERY STREET,TOWER,29725,SOUTH BOSTON,35523,,D & D TOWING LLC,MA,5085647200
6 DEVINE WAY,TOWER,8639,SOUTH BOSTON,7211,,PREBLE ST. GARAGE,MA,8009228276
254 OLD LYMAN ROAD,TOWER,31126,SOUTH HADLEY,51610,,DM TOWING LLC,MA,8882408803
63 BRIDGE STREET,TOWER,16534,SOUTH HADLEY,3713,,J J'S TOWING,MA,4135260751
650 NEW LUDLOW ROAD,TOWER,25488,SOUTH HADLEY,6732,HAMPSHIRE TOWING,PLEASANT STREET AUTOBODY & REP,MA,4135345373
300 Turnpike Road,TOWER,30973,SOUTHBOROUGH,48839,,"TED'S OF FAYVILLE, INC.",MA,5088528500
475 EAST MAIN STREET,TOWER,10137,SOUTHBRIDGE,2910,,DAVE'S AUTO SERVICE,MA,5085647200
176 WORCESTER STREET,TOWER,30895,SOUTHBRIDGE,48742,,RT. 169 GETTY CAR CARE,MA,8003339234
495 DRESSER HILL,TOWER,21661,SOUTHBRIDGE,4997,,SID'S AUTO BODY,MA,5087650651
529 COLLEGE HIGHWAY,TOWER,11283,SOUTHWICK,3011,SAME,"PRIFTI MOTORS, INC.",MA,
324 MAIN ST,TOWER,31906,SPENCER,52894,,AUDETTE'S TOWING&RECOVERY INC,MA,5088853794
15 VALLEY STREET,TOWER,30719,SPENCER,38047,,DURGIN'S VALLEY GARAGE,MA,5083476850
16 PEARL STREET,TOWER,30953,SPENCER,48815,,TRIPLE D TOWING,MA,5088856545
321 ALLEN STREET,TOWER,26359,SPRINGFIELD,7731,,BAILEY MOTORS,MA,8772255276
350 PASCO ROAD,TOWER,31647,SPRINGFIELD,35764,,CJ'S TOWING UNLIMITED INC,MA,4017664200
462 CENTRAL STREET,TOWER,29622,SPRINGFIELD,35165,,KEVIN'S TOWING & AUTO REPAIR,MA,4135945984
356 WALNUT STREET,TOWER,31249,SPRINGFIELD,51938,RONALD MASCARO,MASCARO'S SVC STATION & TOWING,MA,8772255276
"141 Greenland ROAD, Suite 3A",TOWER,31405,STERLING,52150,,FIVE STAR TOWING INC,MA,5085647200
29 LEGATE HILL ROAD,TOWER,31412,STERLING,52174,,"MATTHEWS TRUCK SERVICE, INC.",MA,5087547255
30R Pine STREET,TOWER,31732,STONEHAM,52659,,D & C TOWING & RECOVERY INC,MA,9185318053
11 EMERSON STREET,TOWER,25529,STONEHAM,6770,,KEARNEY TOWING,MA,7819333100
16 GOULD STREET,TOWER,28975,STONEHAM,30320,SAME,"STONEHAM TOWING, INC.",MA,5087504595
1264 WASHINGTON STREET,TOWER,23726,STOUGHTON,5768,,C & J AUTO BODY,MA,7814312500
32 CUSHING STREET,TOWER,24586,STOUGHTON,6180,,"COSTA AUTOMOTIVE REPAIR, A.J.",MA,7813440098
203 ISLAND STREET,TOWER,31141,STOUGHTON,51807,,ISLAND STREET TOWING INC,MA,5085863400
428 WILLOW STREET,TOWER,21821,STOUGHTON,5057,,"J. B.'S TOWING, INC.",MA,7816413002
614 PARK ST # 1,TOWER,31674,STOUGHTON,52572,RICHARD C LOONIE,RICK'S AUTOMOTIVE REPAIR,MA,7814312500
32 CUSHING STREET,TOWER,22741,STOUGHTON,5383,,SHERM'S INC.,MA,7813440098
233 CANTON STREET,TOWER,28130,STOUGHTON,23741,"TOM'S AUTO TRANSPORT, INC.","TOM'S AUTO TRANSPORT, INC.",MA,7813448578
227 MAIN STREET,TOWER,31513,STURBRIDGE,52309,DND INC,STURBRIDGE AUTO BODY,MA,5083666161
241 MAIN STREET,TOWER,16570,STURBRIDGE,3716,,"STURBRIDGE SERVICE CENTER, INC",MA,8004434513
34 STATION ROAD,TOWER,21559,SUDBURY,4969,,"MOSHER AUTO BODY, INC.",MA,8004434513
40 STATION ROAD,TOWER,22499,SUDBURY,5282,,STATION RD AUTOBODY & GARA INC,MA,5082794454
2555 GAR HIGHWAY,TOWER,31501,SWANSEA,52279,,GASKELL'S TOWING INC,MA,5086735893
1475 GAR HIGHWAY,TOWER,5845,SWANSEA,3584,,PICCERELLI'S TOWING,MA,5086752191
774 MAIN STREET,TOWER,22751,TEATICKET,5387,,RMS TOWING,MA,5087711632
108 TROTTING PARK ROAD,TOWER,20242,TEATICKET,4534,,TEATICKET AUTO BODY,MA,5085482500
1875 Rear MAIN STREET,TOWER,22004,TEWKSBURY,5120,,"M & S SERVICE, INC.",MA,7813564141
11 KITTREDGE AVENUE,TOWER,19962,TEWKSBURY,4444,,"PENNEY'S AUTO BODY, INC.",MA,9788513323
107 IPSWICH ROAD,TOWER,31255,TOPSFIELD,51942,,COUNTRY MOTORS INC,MA,9783528000
98 MAIN STREET,TOWER,19232,TOWNSEND,4255,,"HARBOR AUTO BODY, INC.",MA,9787720070
59 MAIN STREET,TOWER,30832,UPTON,48666,,"HIWAY RECOVERY, INC.",MA,5087547255
136 MILFORD STREET,TOWER,27803,UPTON,21026,,MIKE'S AUTO BODY REPAIR,MA,5087547255
141 MILFORD STREET,TOWER,29592,UPTON,34607,,TOGI'S TOWING SERVICE,MA,5087547255
1025 QUAKER HWY,TOWER,31914,UXBRIDGE,52914,,HARSHAW PAVING & RECLAMATION C,MA,7816429000
120 SOUTH MAIN STREET,TOWER,30401,UXBRIDGE,37533,,"LAV'S AUTO BODY & SALES, INC.",MA,5082785577
187 NORTH MAIN STREET,TOWER,31084,UXBRIDGE,50198,RUSSELL L ROSBOROUGH JR,UXBRIDGE AUTO INC,MA,5087915566
67 RAWSON ROAD,TOWER,30859,UXBRIDGE,48689,SYDNEY VANDERZICHT,VANDERZICHT TOWING,MA,5082346333
19 NEW SALEM STREET,TOWER,17058,WAKEFIELD,3814,"HOWE'S TOWING, INC.",WAKEFIELD TOWING,MA,7812450888
51 HOLLOW ROAD,TOWER,30274,WALES,37219,,PEARSON'S TOWING & AUTO REPAIR,MA,4132457600
"440 WEST STREET, PO BOX 224",TOWER,31213,WALPOLE,51939,"ASSURED COLLISION, INC.",ACI TOWING,MA,7813448578
1652 Main Street,TOWER,30365,WALPOLE,37470,,BALABANIS AUTO REPAIR,MA,5086681700
1675 MAIN STREET,TOWER,21703,WALPOLE,5012,,"CHRIS SERVICE CENTER, INC.",MA,6179247474
53 FELTON STREET,TOWER,17031,WALTHAM,3806,,"PILGRIM AUTO BODY, INC.",MA,7818900999
205 WILLOW STREET,TOWER,28393,WALTHAM,27804,,PRO TECH TOWING & RECOVERY,MA,5087547255
144 PROSPECT STEET,TOWER,12666,WALTHAM,3129,,RAMSAY'S TOWING,MA,7812733200
281 CRESCENT ST.,TOWER,17033,WALTHAM,3808,,"WALTHAM AUTO TOW, INC.",MA,5083781166
55 East Street,TOWER,31495,WARE,52273,GARY J BUELOW JR,ALL PARTS RACING,MA,6179673327
29 1/2 MAPLE STREET ANNEX,TOWER,18209,WARE,4028,,"BALICKI AUTO BODY, INC.",MA,5085647200
105 WEST STREET,TOWER,30655,WARE,37944,,GERVAIS AUTO,MA,4139675905
2688 CRANBERRY HIGHWAY,TOWER,29561,WAREHAM,34237,,MARC'S AUTO SERVICE,MA,7813448578
58 SANDWICH ROAD,TOWER,31573,WAREHAM,52390,,ROUTE 6 AUTO SALES LP,MA,5089949688
339 MARKET STREET BLDG #9,TOWER,31568,WARREN,52383,,AMERICAN TOWING & STORAGE LLC,RI,4014319200
516 CHILD STREET,TOWER,31599,WARREN,52452,WILLIAM F CARDOZA,BILL'S TOWING LLC,RI,4013988020
386 OLD WEST WARREN ROAD,TOWER,31541,WARREN,52348,,FIJOL'S JUNK YARD INC,MA,4137880971
764 MAIN STREET,TOWER,15003,WARREN,3446,,"SPENCER, INC., EDW. H.",MA,8004434513
483 PLEASANT STREET,TOWER,23413,WATERTOWN,5630,"PENTA AUTO BODY, INC.",PERFECTION TOWING,MA,8008408842
70 NORTH BEACON ST,TOWER,31825,WATERTOWN,52786,DAN'S ROAD SERVICE INC,WATERTOWN TOWING,MA,
292 R BOSTON POST ROAD,TOWER,31335,WAYLAND,52056,,STATE ROAD AUTO BODY,MA,5082794454
467 WASHINGTON ST,TOWER,31819,WELLESLEY,52785,,BLUE-LINE TOWING INC,MA,5086735893
26 WEST MAIN STREET,TOWER,27369,WELLFLEET,18930,,ROSE'S AUTO SERVICE,MA,5083496311
233 MAIN STREET,TOWER,30120,WENHAM,36959,,FALLON AUTO SERVICE INC,MA,9789272600
11 BRANDYWINE ROAD,TOWER,31152,WEST BOYLSTON,51826,JOSEPH W WELCOME,JOE'S TOWING,MA,5084220535
312 W BOYLSTON STREET,TOWER,31306,WEST BOYLSTON,52012,,KEVIN'S AUTOMOTIVE OF W BOYLST,MA,9786616915
205A W. BOYLSTON STREET,TOWER,21663,WEST BOYLSTON,4998,,WALTER C CRANSTON & SON INC,MA,5087547255
357 S MAIN STREET,TOWER,30727,WEST BRIDGEWATER,38051,,A1 AFFORDABLE INC,MA,5085863400
104 TURNPIKE STREET,TOWER,28768,WEST BRIDGEWATER,28784,,MAY'S TIRES & ACCESSORIES,MA,5082380056
448 WEST CENTER STREET,TOWER,22547,WEST BRIDGEWATER,5304,,RALEIGH AUTO BODY,MA,5086976963
5 CRANE NECK STREET,TOWER,31585,WEST NEWBURY,52426,,CRANE NECK AUTO LLC,MA,7819333100
675 MEMORIAL AVENUE,TOWER,10388,WEST SPRINGFIELD,2941,,CENTRAL CHEVROLET INC,MA,8004736879
1528 RIVERDALE STREET,TOWER,3478,WEST SPRINGFIELD,1793,,RED'S TOWING,MA,4132626952
8 CENTER ROAD,TOWER,23450,WEST STOCKBRIDGE,5643,,WEST CENTER AUTO,MA,4132983741
41 SOUTH STREET,TOWER,30425,WESTBOROUGH,37571,"WESTBORO AUTO BODY, INC.",WESTBORO TOWING CO.,MA,5083666161
247 Elm Street,TOWER,31014,WESTFIELD,48902,,MICHAEL'S TOWING,MA,4135686111
290 LITTLETON ROAD,TOWER,12511,WESTFORD,3117,,BOB'S AUTO SERVICE,MA,9784581275
496 GROTON ROAD,TOWER,31704,WESTFORD,52619,JOSE FERREIRA,Joe's Auto & Towing LLC,MA,8882908803
6 Elliott Road,TOWER,19850,WESTFORD,4408,SULLY'S AUTO REPAIR & TOWING,RALPH R SULLIVAN,MA,
11 MAIN STREET,TOWER,30838,WESTMINSTER,48656,JON K. LUOMA,WESTMINSTER GARAGE,MA,5087547255
626 ADAMSVILLE ROAD,TOWER,19217,WESTPORT,4251,,ADAMSVILLE GARAGE,MA,5086788341
497 SANFORD ROAD,TOWER,15713,WESTPORT,3560,,BEAULIEU'S GARAGE,MA,8882408803
85 FORGE ROAD - REAR,TOWER,28093,WESTPORT,23743,,FERREIRA'S AUTO BODY AND SALES,MA,5086788341
683 AMERICAN LEGION HIGHWAY,TOWER,31317,WESTPORT,52036,,FIVE STAR COLLISION INC,MA,8006660200
867 STATE ROAD,TOWER,30411,WESTPORT,37582,,FOUR SQUARE TOWING INC,MA,5087429211
505 STATE ROAD,TOWER,23819,WESTPORT,5808,,J. B. S. TOWING,MA,5082352231
58 CHARLOTTE WHITE ROAD,TOWER,30361,WESTPORT,37474,DAVID J. ANCTIL,LANTIC SALVAGE,MA,5089949688
221 POND STREET,TOWER,31592,WEYMOUTH,52431,JOSEPH E LEWIS,ALL OVER TOWING,MA,5085647200
11 WATER STREET,TOWER,30366,WEYMOUTH,37469,ALL-MAKE AUTOCARE INC,ALL-MAKE AUTOCARE INC,MA,7638986787
77 PLEASANT STREET,TOWER,27871,WEYMOUTH,21682,"CENTRAL TOWING, INC.","CENTRAL TOWING, INC.",MA,6177883200
1269 WASHINGTON STREET,TOWER,30370,WEYMOUTH,37481,,EXPRESS TOWING,MA,8778351833
1325 R PLEASANT STREET,TOWER,29812,WEYMOUTH,36007,,"MALLOY'S AUTOMOTIVE SERV.,INC.",MA,5083666161
1338 PLEASANT STREET,TOWER,0,WEYMOUTH,48604,,NATIONAL AUTO RECOVERY,MA,7813564141
40 MOORE ROAD,TOWER,23049,WEYMOUTH,5499,,"WEYMOUTH SERVICE CENTER, INC.",MA,7813563533
1125 BEDFORD STREET,TOWER,31208,WHITMAN,51886,,AUTO-TEC LLP,MA,7814833248
741R TEMPLE STREET,TOWER,31917,WHITMAN,52911,,COLUMBIA AUTO BODY INC,MA,7814312500
203 BEDFORD STREET,TOWER,31236,WHITMAN,51919,,DISTINCTIVE AUTO BODY INC,MA,7814475561
845 TEMPLE  ST,TOWER,31808,WHITMAN,52755,JOSEPH FORTIN,MAC ENTERPRISES,MA,5089415711
654 WASHINGTON STREET,TOWER,22602,WHITMAN,5330,,MIKE'S AUTO REPAIR,MA,7812936376
2650 BOSTON ROAD,TOWER,30896,WILBRAHAM,48745,,"LUZI'S AUTO BODY, INC,",MA,4135361491
P.O. BOX 543,TOWER,6332,WILBRAHAM,2505,,O'CONNORS' TOWING,MA,4135439119
260 MAIN STREET,TOWER,3276,WILLIAMSTOWN,1670,,RON'S,MA,4136649366
222 ANDOVER STREET,TOWER,23748,WILMINGTON,5779,SAME,A & S TOWING INC,MA,7817299200
600 MAIN STREET,TOWER,31450,WILMINGTON,52207,,FORREST TOWING INC,MA,7817299200
10 Ranch Road,TOWER,12098,WILMINGTON,3077,,FRED F CAIN INC,MA,8882408803
25 GROVE STREET,TOWER,25354,WINCHENDON,6638,,BROOKS AUTOMOTIVE SERVICE,MA,9782970472
1 BREED AVENUE,TOWER,27502,WOBURN,19865,CRISTOPHER CULLEN,CRIS'S TOWING SERVICE,MA,
89 WINN STREET,TOWER,30367,WOBURN,37468,,MURRAY'S TOWING & EQUIP. SERV.,MA,8008408842
10 REAR GREEN STREET,TOWER,22252,WOBURN,5194,,TOM'S AUTO BODY,MA,8006756695
323 SOUTHWEST CUTOFF,TOWER,8898,WORCESTER,2759,,ADVANCED AUTO BODY,MA,6033584318
245 SOUTH WEST CUTOFF,TOWER,30865,WORCESTER,48713,"AMER. LENDERS SER, CO. OF WORC",BELSITO AUTO,MA,4132626952
550 Franklin Street,TOWER,30457,WORCESTER,37625,,"BOULEVARD GARAGE, INC.",MA,5087564310
7 CANTERBURY STREET,TOWER,28476,WORCESTER,26408,,DAVID'S SERVICE CENTER,MA,5087547255
536 PARK AVENUE,TOWER,22615,WORCESTER,5336,,"EARLY'S ON PARK AVENUE, INC.",MA,5087527504
32 CAMBRIDGE STREET,TOWER,31581,WORCESTER,52415,,LUCKY 13 RECOVERY INC,MA,5087912241
1397 MAIN ST,TOWER,24999,WORCESTER,6407,,"O'CONNOR AUTO SALES, INC.",MA,5087545800
27-33 SHREWSBURY STREET,TOWER,3793,WORCESTER,1884,,PAT'S SERVICE CENTER,MA,5084711113
9 CASCO STREET,TOWER,31800,WORCESTER,52777,PATRIOT SERVICE CENTER AND TOW,PATRIOT SERVICE CENTER AND TOW,MA,5087537233
1359-A GRAFTON STREET,TOWER,27216,WORCESTER,18365,TOWLAND INC,TOWLAND INC,MA,5087555944
45 INDUSTRIAL ROAD,TOWER,31571,WRENTHAM,52389,INCORPORATED,BRUCE'S COMMERCIAL TRUCK SVCS,MA,5082346333
20 INDUSTRIAL RD,TOWER,31785,WRENTHAM,52733,,CROSSROADS TOWING&HAULING LLC,MA,5085283310